OBJECT_NAME,OBJECT_ID,EPOCH,MEAN_MOTION,ECCENTRICITY,INCLINATION,RA_OF_ASC_NODE,ARG_OF_PERICENTER,MEAN_ANOMALY,EPHEMERIS_TYPE,CLASSIFICATION_TYPE,NORAD_CAT_ID,ELEMENT_SET_NO,REV_AT_EPOCH,BSTAR,MEAN_MOTION_DOT,MEAN_MOTION_DDOT
BEIDOU-3S IGSO-1S (C31),2015-019A,2026-07-02T19:12:21.705408,1.00680073,.00768606,49.1798,295.2769,219.1125,144.2493,0,U,40549,999,4123,0,-.19E-5,0
GPS BIIF-10 (PRN 08),2015-033A,2026-07-13T03:33:19.248480,2.00554905,.01153204,53.9627,266.0151,30.2906,330.4504,0,U,40730,999,8051,0,.12E-6,0
BEIDOU-3S M2S (C58),2015-037A,2026-07-11T11:39:59.364864,1.86232157,.0009321,54.8478,301.2103,257.1356,102.7802,0,U,40748,999,7457,0,-.66E-6,0
BEIDOU-3S M1S (C57),2015-037B,2026-07-13T07:13:43.355136,1.86254753,.0002802,54.8425,301.1343,63.5096,296.5438,0,U,40749,999,7461,0,-.65E-6,0
GSAT0206 (GALILEO 10),2015-045B,2026-07-10T08:01:00.659424,1.70473539,.00020653,54.9400,220.9648,329.8405,30.2271,0,U,40890,999,6743,0,.9E-6,0
BEIDOU-3S IGSO-2S (C56),2015-053A,2026-07-13T03:38:30.967584,1.00253027,.00662574,49.1819,258.4722,193.0931,347.6232,0,U,40938,999,3961,0,-.87E-6,0
GPS BIIF-11 (PRN 10),2015-062A,2026-07-13T04:52:25.127904,2.00566902,.0112774,56.9770,29.8096,230.8892,128.1524,0,U,41019,999,7835,0,-.56E-6,0
GSAT-15 (GAGAN/PRN 139),2015-065A,2026-07-13T12:11:53.797920,1.00268382,.000356,0.0265,57.9882,35.2431,114.6407,0,U,41028,999,3906,0,0,0
GSAT0209 (GALILEO 12),2015-079A,2026-07-12T20:22:01.911072,1.70473633,.00049136,55.8417,100.5578,351.6922,8.3136,0,U,41174,999,6521,0,-.31E-6,0
GSAT0208 (GALILEO 11),2015-079B,2026-07-13T01:39:24.107328,1.70473434,.0004537,55.8391,100.5488,14.0255,346.0022,0,U,41175,999,6563,0,-.3E-6,0
IRNSS-1E,2016-003A,2026-07-10T13:58:50.692224,1.00267797,.0019285,33.2836,59.4106,178.7449,11.7354,0,U,41241,999,3831,0,-.316E-5,0
GPS BIIF-12 (PRN 32),2016-007A,2026-07-12T07:08:13.837632,2.00575521,.00966049,55.5393,88.4639,247.6175,111.3935,0,U,41328,999,7634,0,-.36E-6,0
COSMOS 2514 (751),2016-008A,2026-07-11T05:13:06.678624,2.13102486,.00121908,65.0058,312.1821,200.7153,159.2416,0,U,41330,999,8113,0,-.62E-6,0
BEIDOU-2 IGSO-6 (C13),2016-021A,2026-06-26T02:38:38.671584,1.00258926,.0057558,60.2385,37.9495,231.0163,137.2672,0,U,41434,999,3757,0,-.145E-5,0
IRNSS-1G,2016-027A,2026-07-13T12:22:15.305088,1.00271982,.0005962,5.2587,96.8656,10.3074,139.4630,0,U,41469,999,3744,0,-.343E-5,0
GSAT0211 (GALILEO 14),2016-030A,2026-07-10T20:18:43.597152,1.70473689,.00033143,55.0905,221.0437,318.6557,41.3997,0,U,41549,999,6307,0,.9E-6,0
GSAT0210 (GALILEO 13),2016-030B,2026-07-13T10:47:52.206720,1.70473775,.0004717,55.0890,220.9701,246.7720,113.2519,0,U,41550,999,6311,0,.75E-6,0
BEIDOU-2 G7 (C03),2016-037A,2026-07-13T12:16:45.831648,1.00274364,.0005997,1.7819,69.4825,359.3097,157.3152,0,U,41586,999,715,0,-.359E-5,0
EUTELSAT 117 WEST B (WAAS/PRN 131),2016-038B,2026-07-13T11:17:38.747040,1.00270338,.0000324,0.0079,161.6979,315.5484,226.5130,0,U,41589,999,3692,0,-.15E-6,0
GSAT0207 (GALILEO 15),2016-069A,2026-07-11T23:14:54.714048,1.70473524,.0004522,55.5126,100.4004,339.9754,20.0172,0,U,41859,999,5982,0,-.3E-6,0
GSAT0212 (GALILEO 16),2016-069B,2026-07-12T23:53:11.138784,1.70473652,.0004363,55.5113,100.3670,10.9612,349.0630,0,U,41860,999,6009,0,-.31E-6,0
GSAT0213 (GALILEO 17),2016-069C,2026-07-10T10:18:28.366272,1.70474095,.00043943,55.5116,100.4460,317.3165,42.6580,0,U,41861,999,5991,0,-.24E-6,0
GSAT0214 (GALILEO 18),2016-069D,2026-07-12T22:07:51.687264,1.70473654,.0003294,55.5118,100.3696,332.9460,27.0511,0,U,41862,999,6008,0,-.31E-6,0
SES-15 (WAAS/PRN 133),2017-026A,2026-07-13T11:25:38.675712,1.00278934,.000085,0.0268,325.7856,173.2050,194.6194,0,U,42709,999,769,0,.55E-6,0
QZS-2 (QZSS/PRN 194),2017-028A,2026-07-13T11:01:56.072064,1.00277190,.0757669,39.3889,242.7664,269.5797,86.8751,0,U,42738,999,789,0,-.108E-5,0
QZS-3 (QZSS/PRN 199),2017-048A,2026-07-13T12:21:22.887936,1.00272892,.0002491,0.0681,215.9981,270.3725,117.3977,0,U,42917,999,3252,0,-.352E-5,0
COSMOS 2522 (752),2017-055A,2026-07-10T02:47:54.879360,2.13101919,.00109107,64.0805,191.1038,240.8947,119.0275,0,U,42939,999,6846,0,.122E-5,0
QZS-4 (QZSS/PRN 195),2017-062A,2026-07-12T17:38:03.472224,1.00290649,.07474587,40.0933,343.1604,268.5188,82.4158,0,U,42965,999,3205,0,-.331E-5,0
BEIDOU-3 M1 (C19),2017-069A,2026-07-12T21:46:00.935328,1.86230910,.0009236,56.7143,62.2376,328.7365,31.2800,0,U,43001,999,5908,0,-.39E-6,0
BEIDOU-3 M2 (C20),2017-069B,2026-07-10T03:51:48.602880,1.86230592,.00082547,56.7107,62.3639,357.9796,2.0799,0,U,43002,999,5902,0,-.46E-6,0
GSAT0215 (GALILEO 19),2017-079A,2026-07-11T01:34:10.051104,1.70474334,.00036979,55.0682,220.8492,267.9007,92.1373,0,U,43055,999,5339,0,.9E-6,0
